{
  "type": "FeatureCollection",
  "features": [
    {
      "type": "Feature",
      "properties": {
        "norad_id": 43207,
        "name": "BEIDOU-3 M4 (C22)",
        "group": "beidou",
        "lat": 49.925425742786146,
        "lon": -162.90674643665687,
        "alt_km": 21526.094987461434,
        "timestamp": "2025-12-24T07:45:06.465069+00:00",
        "meta_object_name": "BEIDOU-3 M4 (C22)",
        "meta_object_id": "2018-018A",
        "meta_epoch": "2025-12-23T14:48:25.996320",
        "meta_mean_motion": 1.86231206,
        "meta_eccentricity": 0.0004161,
        "meta_inclination": 56.4945,
        "meta_ra_of_asc_node": 68.9448,
        "meta_arg_of_pericenter": 3.5159,
        "meta_mean_anomaly": 356.5407,
        "meta_ephemeris_type": 0,
        "meta_classification_type": "U",
        "meta_norad_cat_id": 43207,
        "meta_element_set_no": 999,
        "meta_rev_at_epoch": 5347,
        "meta_bstar": 0,
        "meta_mean_motion_dot": -2.4e-07,
        "meta_mean_motion_ddot": 0,
        "tle_line1": "1 43207U 18018A   25357.61696755 -.00000024  00000+0  00000+0 0  9996",
        "tle_line2": "2 43207  56.4945  68.9448 0004161   3.5159 356.5407  1.86231206 53473"
      },
      "geometry": {
        "type": "Point",
        "coordinates": [
          -162.90674643665687,
          49.925425742786146
        ]
      }
    },
    {
      "type": "Feature",
      "properties": {
        "norad_id": 43208,
        "name": "BEIDOU-3 M3 (C21)",
        "group": "beidou",
        "lat": 51.03562681590061,
        "lon": 123.83257636600352,
        "alt_km": 21530.31631478623,
        "timestamp": "2025-12-24T07:45:06.465081+00:00",
        "meta_object_name": "BEIDOU-3 M3 (C21)",
        "meta_object_id": "2018-018B",
        "meta_epoch": "2025-12-22T14:37:45.965856",
        "meta_mean_motion": 1.86231405,
        "meta_eccentricity": 0.00070517,
        "meta_inclination": 56.4931,
        "meta_ra_of_asc_node": 68.9821,
        "meta_arg_of_pericenter": 313.7983,
        "meta_mean_anomaly": 46.1946,
        "meta_ephemeris_type": 0,
        "meta_classification_type": "U",
        "meta_norad_cat_id": 43208,
        "meta_element_set_no": 999,
        "meta_rev_at_epoch": 5345,
        "meta_bstar": 0,
        "meta_mean_motion_dot": -2.7e-07,
        "meta_mean_motion_ddot": 0,
        "tle_line1": "1 43208U 18018B   25356.60955979 -.00000027  00000+0  00000+0 0  9994",
        "tle_line2": "2 43208  56.4931  68.9821 0007051 313.7983  46.1946  1.86231405 53455"
      },
      "geometry": {
        "type": "Point",
        "coordinates": [
          123.83257636600352,
          51.03562681590061
        ]
      }
    },
    {
      "type": "Feature",
      "properties": {
        "norad_id": 43245,
        "name": "BEIDOU-3 M9 (C29)",
        "group": "beidou",
        "lat": -52.13539281392651,
        "lon": -121.16064237758552,
        "alt_km": 21529.718833156006,
        "timestamp": "2025-12-24T07:45:06.465094+00:00",
        "meta_object_name": "BEIDOU-3 M9 (C29)",
        "meta_object_id": "2018-029A",
        "meta_epoch": "2025-12-21T18:02:44.382048",
        "meta_mean_motion": 1.8622836,
        "meta_eccentricity": 0.00015407,
        "meta_inclination": 54.3576,
        "meta_ra_of_asc_node": 306.1541,
        "meta_arg_of_pericenter": 290.4225,
        "meta_mean_anomaly": 69.56,
        "meta_ephemeris_type": 0,
        "meta_classification_type": "U",
        "meta_norad_cat_id": 43245,
        "meta_element_set_no": 999,
        "meta_rev_at_epoch": 5259,
        "meta_bstar": 0,
        "meta_mean_motion_dot": -5.9e-07,
        "meta_mean_motion_ddot": 0,
        "tle_line1": "1 43245U 18029A   25355.75190257 -.00000059  00000+0  00000+0 0  9997",
        "tle_line2": "2 43245  54.3576 306.1541 0001540 290.4225  69.5600  1.86228360 52597"
      },
      "geometry": {
        "type": "Point",
        "coordinates": [
          -121.16064237758552,
          -52.13539281392651
        ]
      }
    },
    {
      "type": "Feature",
      "properties": {
        "norad_id": 43246,
        "name": "BEIDOU-3 M10 (C30)",
        "group": "beidou",
        "lat": -26.138954385270736,
        "lon": -74.52324716404615,
        "alt_km": 21521.920794551665,
        "timestamp": "2025-12-24T07:45:06.465105+00:00",
        "meta_object_name": "BEIDOU-3 M10 (C30)",
        "meta_object_id": "2018-029B",
        "meta_epoch": "2025-12-23T07:09:06.922656",
        "meta_mean_motion": 1.86229257,
        "meta_eccentricity": 0.00043036,
        "meta_inclination": 54.3535,
        "meta_ra_of_asc_node": 306.127,
        "meta_arg_of_pericenter": 3.3658,
        "meta_mean_anomaly": 356.6419,
        "meta_ephemeris_type": 0,
        "meta_classification_type": "U",
        "meta_norad_cat_id": 43246,
        "meta_element_set_no": 999,
        "meta_rev_at_epoch": 5260,
        "meta_bstar": 0,
        "meta_mean_motion_dot": -5.3e-07,
        "meta_mean_motion_ddot": 0,
        "tle_line1": "1 43246U 18029B   25357.29799679 -.00000053  00000+0  00000+0 0  9996",
        "tle_line2": "2 43246  54.3535 306.1270 0004303   3.3658 356.6419  1.86229257 52609"
      },
      "geometry": {
        "type": "Point",
        "coordinates": [
          -74.52324716404615,
          -26.138954385270736
        ]
      }
    },
    {
      "type": "Feature",
      "properties": {
        "norad_id": 43539,
        "name": "BEIDOU-2 IGSO-7 (C16)",
        "group": "beidou",
        "lat": 21.093553633125254,
        "lon": -31.035616381100585,
        "alt_km": 35726.526254519915,
        "timestamp": "2025-12-24T07:45:06.465117+00:00",
        "meta_object_name": "BEIDOU-2 IGSO-7 (C16)",
        "meta_object_id": "2018-057A",
        "meta_epoch": "2025-12-15T07:47:07.120608",
        "meta_mean_motion": 1.00256546,
        "meta_eccentricity": 0.00926218,
        "meta_inclination": 55.1766,
        "meta_ra_of_asc_node": 164.6485,
        "meta_arg_of_pericenter": 235.2644,
        "meta_mean_anomaly": 271.8458,
        "meta_ephemeris_type": 0,
        "meta_classification_type": "U",
        "meta_norad_cat_id": 43539,
        "meta_element_set_no": 999,
        "meta_rev_at_epoch": 2728,
        "meta_bstar": 0,
        "meta_mean_motion_dot": -2.3e-07,
        "meta_mean_motion_ddot": 0,
        "tle_line1": "1 43539U 18057A   25349.32438797 -.00000023  00000+0  00000+0 0  9995",
        "tle_line2": "2 43539  55.1766 164.6485 0092621 235.2644 271.8458  1.00256546 27289"
      },
      "geometry": {
        "type": "Point",
        "coordinates": [
          -31.035616381100585,
          21.093553633125254
        ]
      }
    },
    {
      "type": "Feature",
      "properties": {
        "norad_id": 43581,
        "name": "BEIDOU-3 M5 (C23)",
        "group": "beidou",
        "lat": 2.683140204502698,
        "lon": 6.305323035828711,
        "alt_km": 21533.482113418246,
        "timestamp": "2025-12-24T07:45:06.465129+00:00",
        "meta_object_name": "BEIDOU-3 M5 (C23)",
        "meta_object_id": "2018-062A",
        "meta_epoch": "2025-12-22T23:39:18.716256",
        "meta_mean_motion": 1.86228796,
        "meta_eccentricity": 0.00019159,
        "meta_inclination": 54.09,
        "meta_ra_of_asc_node": 188.2947,
        "meta_arg_of_pericenter": 2.7152,
        "meta_mean_anomaly": 357.3266,
        "meta_ephemeris_type": 0,
        "meta_classification_type": "U",
        "meta_norad_cat_id": 43581,
        "meta_element_set_no": 999,
        "meta_rev_at_epoch": 5035,
        "meta_bstar": 0,
        "meta_mean_motion_dot": 9.6e-07,
        "meta_mean_motion_ddot": 0,
        "tle_line1": "1 43581U 18062A   25356.98563329  .00000096  00000+0  00000+0 0  9997",
        "tle_line2": "2 43581  54.0900 188.2947 0001915   2.7152 357.3266  1.86228796 50357"
      },
      "geometry": {
        "type": "Point",
        "coordinates": [
          6.305323035828711,
          2.683140204502698
        ]
      }
    },
    {
      "type": "Feature",
      "properties": {
        "norad_id": 43582,
        "name": "BEIDOU-3 M6 (C24)",
        "group": "beidou",
        "lat": -54.03119770762496,
        "lon": 95.70912861395759,
        "alt_km": 21550.66988530547,
        "timestamp": "2025-12-24T07:45:06.465140+00:00",
        "meta_object_name": "BEIDOU-3 M6 (C24)",
        "meta_object_id": "2018-062B",
        "meta_epoch": "2025-12-21T18:35:38.749056",
        "meta_mean_motion": 1.86229862,
        "meta_eccentricity": 0.00078412,
        "meta_inclination": 54.0893,
        "meta_ra_of_asc_node": 188.325,
        "meta_arg_of_pericenter": 48.2344,
        "meta_mean_anomaly": 311.88,
        "meta_ephemeris_type": 0,
        "meta_classification_type": "U",
        "meta_norad_cat_id": 43582,
        "meta_element_set_no": 999,
        "meta_rev_at_epoch": 5033,
        "meta_bstar": 0,
        "meta_mean_motion_dot": 9.4e-07,
        "meta_mean_motion_ddot": 0,
        "tle_line1": "1 43582U 18062B   25355.77475404  .00000094  00000+0  00000+0 0  9998",
        "tle_line2": "2 43582  54.0893 188.3250 0007841  48.2344 311.8800  1.86229862 50331"
      },
      "geometry": {
        "type": "Point",
        "coordinates": [
          95.70912861395759,
          -54.03119770762496
        ]
      }
    }
  ]
}